SUPERVIEW NEO-2 OBJECT B
1 68378U 26062B   26086.04924529  .00003139  00000+0  14873-3 0  9996
2 68378  97.4356  94.5245 0010396 272.3840  87.6205 15.20012563   173
CZ-2D R/B               
1 68379U 26062C   26086.30303523  .00006543  00000+0  21166-3 0  9996
2 68379  97.4991  94.5937 0053877  56.9096 303.7300 15.30983925   210
