[{"OBJECT_NAME":"SUPERVIEW NEO-2 OBJECT B","OBJECT_ID":"2026-062B","EPOCH":"2026-03-27T01:10:54.793056","MEAN_MOTION":15.20012563,"ECCENTRICITY":0.00103961,"INCLINATION":97.4356,"RA_OF_ASC_NODE":94.5245,"ARG_OF_PERICENTER":272.384,"MEAN_ANOMALY":87.6205,"EPHEMERIS_TYPE":0,"CLASSIFICATION_TYPE":"U","NORAD_CAT_ID":68378,"ELEMENT_SET_NO":999,"REV_AT_EPOCH":17,"BSTAR":0.00014872926,"MEAN_MOTION_DOT":3.139e-5,"MEAN_MOTION_DDOT":0},{"OBJECT_NAME":"CZ-2D R/B","OBJECT_ID":"2026-062C","EPOCH":"2026-03-27T07:16:22.243872","MEAN_MOTION":15.30983925,"ECCENTRICITY":0.0053877,"INCLINATION":97.4991,"RA_OF_ASC_NODE":94.5937,"ARG_OF_PERICENTER":56.9096,"MEAN_ANOMALY":303.73,"EPHEMERIS_TYPE":0,"CLASSIFICATION_TYPE":"U","NORAD_CAT_ID":68379,"ELEMENT_SET_NO":999,"REV_AT_EPOCH":21,"BSTAR":0.00021166437,"MEAN_MOTION_DOT":6.543e-5,"MEAN_MOTION_DDOT":0}]
